STARLINK-32517          
1 61980U 24210X   26068.35006430  .00033061  00000+0  12058-2 0  9996
2 61980  42.9999 182.1168 0001233 267.5380  92.5331 15.27572420 74778
KUIPER-00204            
1 67145U 25301N   26068.39760395  .00020516  00000+0  79568-3 0  9999
2 67145  51.8870  71.6415 0003071 354.8934   5.2016 15.26088400 13737
